{
  "type": "FeatureCollection",
  "features": [
    {
      "type": "Feature",
      "properties": {
        "norad_id": 38867,
        "name": "INTELSAT 23 (IS-23)",
        "group": "intelsat",
        "lat": 0.030986247965160325,
        "lon": 155.39526301217685,
        "alt_km": 35789.56990856799,
        "timestamp": "2025-12-23T07:45:09.064450+00:00",
        "meta_object_name": "INTELSAT 23 (IS-23)",
        "meta_object_id": "2012-057A",
        "meta_epoch": "2025-12-22T18:02:56.365728",
        "meta_mean_motion": 1.0026864,
        "meta_eccentricity": 7.149e-05,
        "meta_inclination": 0.0218,
        "meta_ra_of_asc_node": 75.9617,
        "meta_arg_of_pericenter": 227.1276,
        "meta_mean_anomaly": 6.208,
        "meta_ephemeris_type": 0,
        "meta_classification_type": "U",
        "meta_norad_cat_id": 38867,
        "meta_element_set_no": 999,
        "meta_rev_at_epoch": 4818,
        "meta_bstar": 0,
        "meta_mean_motion_dot": -2.63e-06,
        "meta_mean_motion_ddot": 0,
        "tle_line1": "1 38867U 12057A   25356.75204127 -.00000263  00000+0  00000+0 0  9996",
        "tle_line2": "2 38867   0.0218  75.9617 0000714 227.1276   6.2080  1.00268640 48183"
      },
      "geometry": {
        "type": "Point",
        "coordinates": [
          155.39526301217685,
          0.030986247965160325
        ]
      }
    },
    {
      "type": "Feature",
      "properties": {
        "norad_id": 39360,
        "name": "FM-6",
        "group": "intelsat",
        "lat": 0.02419588980516535,
        "lon": 92.286671378668,
        "alt_km": 35783.472913097336,
        "timestamp": "2025-12-23T07:45:09.064462+00:00",
        "meta_object_name": "FM-6",
        "meta_object_id": "2013-058A",
        "meta_epoch": "2025-12-22T10:54:06.126048",
        "meta_mean_motion": 1.00295486,
        "meta_eccentricity": 0.00025049,
        "meta_inclination": 0.0105,
        "meta_ra_of_asc_node": 56.8599,
        "meta_arg_of_pericenter": 147.9876,
        "meta_mean_anomaly": 293.7792,
        "meta_ephemeris_type": 0,
        "meta_classification_type": "U",
        "meta_norad_cat_id": 39360,
        "meta_element_set_no": 999,
        "meta_rev_at_epoch": 4430,
        "meta_bstar": 0,
        "meta_mean_motion_dot": 1e-08,
        "meta_mean_motion_ddot": 0,
        "tle_line1": "1 39360U 13058A   25356.45423757  .00000001  00000+0  00000+0 0  9995",
        "tle_line2": "2 39360   0.0105  56.8599 0002504 147.9876 293.7792  1.00295486 44309"
      },
      "geometry": {
        "type": "Point",
        "coordinates": [
          92.286671378668,
          0.02419588980516535
        ]
      }
    },
    {
      "type": "Feature",
      "properties": {
        "norad_id": 40271,
        "name": "INTELSAT 30 (IS-30)",
        "group": "intelsat",
        "lat": 0.035276300057624006,
        "lon": 113.3564836912077,
        "alt_km": 35779.55856403677,
        "timestamp": "2025-12-23T07:45:09.064473+00:00",
        "meta_object_name": "INTELSAT 30 (IS-30)",
        "meta_object_id": "2014-062A",
        "meta_epoch": "2025-12-22T11:00:05.552640",
        "meta_mean_motion": 1.00272577,
        "meta_eccentricity": 0.00015792,
        "meta_inclination": 0.0108,
        "meta_ra_of_asc_node": 21.0351,
        "meta_arg_of_pericenter": 73.4094,
        "meta_mean_anomaly": 66.7935,
        "meta_ephemeris_type": 0,
        "meta_classification_type": "U",
        "meta_norad_cat_id": 40271,
        "meta_element_set_no": 999,
        "meta_rev_at_epoch": 502,
        "meta_bstar": 0,
        "meta_mean_motion_dot": -1.29e-06,
        "meta_mean_motion_ddot": 0,
        "tle_line1": "1 40271U 14062A   25356.45839760 -.00000129  00000+0  00000+0 0  9991",
        "tle_line2": "2 40271   0.0108  21.0351 0001579  73.4094  66.7935  1.00272577  5020"
      },
      "geometry": {
        "type": "Point",
        "coordinates": [
          113.3564836912077,
          0.035276300057624006
        ]
      }
    },
    {
      "type": "Feature",
      "properties": {
        "norad_id": 40333,
        "name": "DIRECTV 14",
        "group": "intelsat",
        "lat": 0.022586308332402303,
        "lon": 109.17826815797602,
        "alt_km": 35785.032620973514,
        "timestamp": "2025-12-23T07:45:09.064485+00:00",
        "meta_object_name": "DIRECTV 14",
        "meta_object_id": "2014-078B",
        "meta_epoch": "2025-12-22T14:24:17.301600",
        "meta_mean_motion": 1.00272804,
        "meta_eccentricity": 3.288e-05,
        "meta_inclination": 0.01,
        "meta_ra_of_asc_node": 325.5744,
        "meta_arg_of_pericenter": 199.3396,
        "meta_mean_anomaly": 43.3433,
        "meta_ephemeris_type": 0,
        "meta_classification_type": "U",
        "meta_norad_cat_id": 40333,
        "meta_element_set_no": 999,
        "meta_rev_at_epoch": 4027,
        "meta_bstar": 0,
        "meta_mean_motion_dot": -1.04e-06,
        "meta_mean_motion_ddot": 0,
        "tle_line1": "1 40333U 14078B   25356.60020025 -.00000104  00000+0  00000+0 0  9993",
        "tle_line2": "2 40333   0.0100 325.5744 0000328 199.3396  43.3433  1.00272804 40276"
      },
      "geometry": {
        "type": "Point",
        "coordinates": [
          109.17826815797602,
          0.022586308332402303
        ]
      }
    },
    {
      "type": "Feature",
      "properties": {
        "norad_id": 40663,
        "name": "DIRECTV 15",
        "group": "intelsat",
        "lat": 0.04771017999108694,
        "lon": 105.52202154937281,
        "alt_km": 35785.480671651574,
        "timestamp": "2025-12-23T07:45:09.064496+00:00",
        "meta_object_name": "DIRECTV 15",
        "meta_object_id": "2015-026A",
        "meta_epoch": "2025-12-22T10:57:50.767776",
        "meta_mean_motion": 1.00273682,
        "meta_eccentricity": 4.03e-05,
        "meta_inclination": 0.0228,
        "meta_ra_of_asc_node": 18.0826,
        "meta_arg_of_pericenter": 174.8606,
        "meta_mean_anomaly": 319.9041,
        "meta_ephemeris_type": 0,
        "meta_classification_type": "U",
        "meta_norad_cat_id": 40663,
        "meta_element_set_no": 999,
        "meta_rev_at_epoch": 3869,
        "meta_bstar": 0,
        "meta_mean_motion_dot": 0,
        "meta_mean_motion_ddot": 0,
        "tle_line1": "1 40663U 15026A   25356.45683759  .00000000  00000+0  00000+0 0  9999",
        "tle_line2": "2 40663   0.0228  18.0826 0000403 174.8606 319.9041  1.00273682 38699"
      },
      "geometry": {
        "type": "Point",
        "coordinates": [
          105.52202154937281,
          0.04771017999108694
        ]
      }
    },
    {
      "type": "Feature",
      "properties": {
        "norad_id": 40664,
        "name": "SKY MEXICO-1",
        "group": "intelsat",
        "lat": 0.03318563483385049,
        "lon": 129.6230562028184,
        "alt_km": 35795.82557863843,
        "timestamp": "2025-12-23T07:45:09.064508+00:00",
        "meta_object_name": "SKY MEXICO-1",
        "meta_object_id": "2015-026B",
        "meta_epoch": "2025-12-22T21:20:59.900352",
        "meta_mean_motion": 1.00270977,
        "meta_eccentricity": 0.00024054,
        "meta_inclination": 0.0142,
        "meta_ra_of_asc_node": 8.0809,
        "meta_arg_of_pericenter": 280.2886,
        "meta_mean_anomaly": 44.8063,
        "meta_ephemeris_type": 0,
        "meta_classification_type": "U",
        "meta_norad_cat_id": 40664,
        "meta_element_set_no": 999,
        "meta_rev_at_epoch": 3868,
        "meta_bstar": 0,
        "meta_mean_motion_dot": -2.13e-06,
        "meta_mean_motion_ddot": 0,
        "tle_line1": "1 40664U 15026B   25356.88958218 -.00000213  00000+0  00000+0 0  9999",
        "tle_line2": "2 40664   0.0142   8.0809 0002405 280.2886  44.8063  1.00270977 38682"
      },
      "geometry": {
        "type": "Point",
        "coordinates": [
          129.6230562028184,
          0.03318563483385049
        ]
      }
    },
    {
      "type": "Feature",
      "properties": {
        "norad_id": 40874,
        "name": "INTELSAT 34 (IS-34)",
        "group": "intelsat",
        "lat": 0.002329832140799141,
        "lon": 152.91702961091687,
        "alt_km": 35782.62484949684,
        "timestamp": "2025-12-23T07:45:09.064520+00:00",
        "meta_object_name": "INTELSAT 34 (IS-34)",
        "meta_object_id": "2015-039A",
        "meta_epoch": "2025-12-22T11:11:19.477824",
        "meta_mean_motion": 1.00275391,
        "meta_eccentricity": 7.019e-05,
        "meta_inclination": 0.0157,
        "meta_ra_of_asc_node": 310.7317,
        "meta_arg_of_pericenter": 232.3178,
        "meta_mean_anomaly": 20.5664,
        "meta_ephemeris_type": 0,
        "meta_classification_type": "U",
        "meta_norad_cat_id": 40874,
        "meta_element_set_no": 999,
        "meta_rev_at_epoch": 3785,
        "meta_bstar": 0,
        "meta_mean_motion_dot": -2.64e-06,
        "meta_mean_motion_ddot": 0,
        "tle_line1": "1 40874U 15039A   25356.46619766 -.00000264  00000+0  00000+0 0  9998",
        "tle_line2": "2 40874   0.0157 310.7317 0000701 232.3178  20.5664  1.00275391 37858"
      },
      "geometry": {
        "type": "Point",
        "coordinates": [
          152.91702961091687,
          0.002329832140799141
        ]
      }
    }
  ]
}